[{"OBJECT_NAME":"GHGSAT-C4","OBJECT_ID":"2022-057Q","EPOCH":"2026-03-09T22:58:28.655904","MEAN_MOTION":15.3293316,"ECCENTRICITY":0.0007552,"INCLINATION":97.6357,"RA_OF_ASC_NODE":210.0193,"ARG_OF_PERICENTER":100.0033,"MEAN_ANOMALY":260.2061,"EPHEMERIS_TYPE":0,"CLASSIFICATION_TYPE":"U","NORAD_CAT_ID":52746,"ELEMENT_SET_NO":999,"REV_AT_EPOCH":21033,"BSTAR":0.00030289005,"MEAN_MOTION_DOT":9.562e-5,"MEAN_MOTION_DDOT":0},{"OBJECT_NAME":"STARLINK-34438","OBJECT_ID":"2025-223Y","EPOCH":"2026-03-09T21:24:34.764192","MEAN_MOTION":15.30199939,"ECCENTRICITY":0.00011731,"INCLINATION":53.1594,"RA_OF_ASC_NODE":293.4427,"ARG_OF_PERICENTER":75.5579,"MEAN_ANOMALY":284.5552,"EPHEMERIS_TYPE":0,"CLASSIFICATION_TYPE":"U","NORAD_CAT_ID":65876,"ELEMENT_SET_NO":999,"REV_AT_EPOCH":2423,"BSTAR":0.00066923218,"MEAN_MOTION_DOT":0.00019514,"MEAN_MOTION_DDOT":0}]
